STARLINK-35662          
1 66384U 25257E   25328.16668980 -.01969930  00000+0 -16768-1 0  9999
2 66384  53.1594 353.0669 0001141  80.9817 309.5721 15.71902818  3516
STARLINK-35659          
1 66385U 25257F   25328.16668980 -.01988849  00000+0 -16938-1 0  9999
2 66385  53.1592 353.0748 0001046  90.4094 296.2973 15.71921613  3515
STARLINK-35651          
1 66386U 25257G   25328.16668980 -.01977047  00000+0 -16832-1 0  9991
2 66386  53.1593 353.0628 0000840  88.8525 303.6123 15.71911944  3511
STARLINK-35661          
1 66387U 25257H   25328.16668980 -.01974580  00000+0 -16808-1 0  9994
2 66387  53.1590 353.0590 0001036 115.1948 279.1831 15.71910883  3512
STARLINK-35647          
1 66388U 25257J   25328.16668980 -.01981547  00000+0 -16874-1 0  9999
2 66388  53.1592 353.0549 0000746  98.2614 298.0349 15.71915613  3517
STARLINK-35694          
1 66389U 25257K   25328.16668980 -.01980779  00000+0 -16864-1 0  9995
2 66389  53.1593 353.0504 0001020  97.4775 300.7325 15.71915889  3515
STARLINK-35665          
1 66390U 25257L   25328.16668980 -.01993533  00000+0 -16980-1 0  9998
2 66390  53.1594 352.9790 0001003  65.5656   7.1424 15.71925512  3611
STARLINK-35656          
1 66391U 25257M   25328.16668980 -.02171972  00000+0 -20070-1 0  9990
2 66391  53.1580 352.6547 0001279  98.2379 131.6958 15.70294551  3610
STARLINK-35671          
1 66392U 25257N   25328.16668980 -.01982408  00000+0 -16881-1 0  9999
2 66392  53.1591 353.0427 0000842 103.1604 298.8863 15.71916324  3517
STARLINK-35652          
1 66393U 25257P   25328.16668980 -.02029680  00000+0 -17323-1 0  9997
2 66393  53.1592 353.0467 0000839  83.1094 317.0284 15.71938115  3512
STARLINK-35672          
1 66394U 25257Q   25328.16668980 -.01977674  00000+0 -16839-1 0  9993
2 66394  53.1592 353.0380 0000845  90.3723 313.5961 15.71910664  3515
STARLINK-35681          
1 66395U 25257R   25328.16668980 -.01990872  00000+0 -16958-1 0  9991
2 66395  53.1590 353.0350 0001066  74.5016 331.3778 15.71920129  3359
